COMMENT,ORIGINATOR,NORAD_CAT_ID,OBJECT_NAME,OBJECT_TYPE,CLASSIFICATION_TYPE,INTLDES,EPOCH,EPOCH_MICROSECONDS,MEAN_MOTION,ECCENTRICITY,INCLINATION,RA_OF_ASC_NODE,ARG_OF_PERICENTER,MEAN_ANOMALY,EPHEMERIS_TYPE,ELEMENT_SET_NO,REV_AT_EPOCH,BSTAR,MEAN_MOTION_DOT,MEAN_MOTION_DDOT,FILE,TLE_LINE0,TLE_LINE1,TLE_LINE2,OBJECT_ID,OBJECT_NUMBER,SEMIMAJOR_AXIS,PERIOD,APOGEE,PERIGEE,DECAYED
"GENERATED VIA SPACETRACK.ORG API","18 SPCS","48890","SPACEBEE-104","PAYLOAD","U","21059M","2023-10-13 09:07:59","462112","15.43707918","0.0004834","97.6057","67.3099","228.7319","131.3512","0","999","12755","0.0019825","0.0009034","0","4032919","0 SPACEBEE-104","1 48890U 21059M   23286.38054933  .00090340  00000-0  19825-2 0  9995","2 48890  97.6057  67.3099 0004834 228.7319 131.3512 15.43707918127551","2021-059M","48890","6813.314","93.282","438.473","431.886","0"
"GENERATED VIA SPACETRACK.ORG API","18 SPCS","48890","SPACEBEE-104","PAYLOAD","U","21059M","2023-10-13 21:34:42","226176","15.43825415","0.0004776","97.6058","67.8523","229.2744","130.8089","0","999","12763","0.0025665","0.00117858","0","4033175","0 SPACEBEE-104","1 48890U 21059M   23286.89909984  .00117858  00000-0  25665-2 0  9999","2 48890  97.6058  67.8523 0004776 229.2744 130.8089 15.43825415127637","2021-059M","48890","6812.969","93.275","438.087","431.580","0"
"GENERATED VIA SPACETRACK.ORG API","18 SPCS","48890","SPACEBEE-104","PAYLOAD","U","21059M","2023-10-13 23:08:02","326848","15.43839625","0.0004774","97.6058","67.9199","229.095","130.9885","0","999","12764","0.0025427","0.00116804","0","4033388","0 SPACEBEE-104","1 48890U 21059M   23286.96391582  .00116804  00000-0  25427-2 0  9992","2 48890  97.6058  67.9199 0004774 229.0950 130.9885 15.43839625127646","2021-059M","48890","6812.927","93.274","438.044","431.539","0"
"GENERATED VIA SPACETRACK.ORG API","18 SPCS","48890","SPACEBEE-104","PAYLOAD","U","21059M","2023-10-14 08:28:02","12448","15.43915326","0.0004777","97.6061","68.3261","227.6012","132.4831","0","999","12770","0.00217","0.00099705","0","4033723","0 SPACEBEE-104","1 48890U 21059M   23287.35280107  .00099705  00000-0  21700-2 0  9996","2 48890  97.6061  68.3261 0004777 227.6012 132.4831 15.43915326127709","2021-059M","48890","6812.704","93.269","437.823","431.315","0"
"GENERATED VIA SPACETRACK.ORG API","18 SPCS","48890","SPACEBEE-104","PAYLOAD","U","21059M","2023-10-14 08:28:02","12448","15.43915326","0.0004777","97.6061","68.3261","227.6012","132.4831","0","999","12770","0.00217","0.00099705","0","4033811","0 SPACEBEE-104","1 48890U 21059M   23287.35280107  .00099705  00000-0  21700-2 0  9996","2 48890  97.6061  68.3261 0004777 227.6012 132.4831 15.43915326127709","2021-059M","48890","6812.704","93.269","437.823","431.315","0"
"GENERATED VIA SPACETRACK.ORG API","18 SPCS","48890","SPACEBEE-104","PAYLOAD","U","21059M","2023-10-14 20:54:39","174336","15.44004935","0.0004626","97.6064","68.8686","226.7928","133.2934","0","999","12778","0.0020156","0.000928","0","4034164","0 SPACEBEE-104","1 48890U 21059M   23287.87128674  .00092800  00000-0  20156-2 0  9996","2 48890  97.6064  68.8686 0004626 226.7928 133.2934 15.44004935127784","2021-059M","48890","6812.440","93.264","437.457","431.154","0"
"GENERATED VIA SPACETRACK.ORG API","18 SPCS","48890","SPACEBEE-104","PAYLOAD","U","21059M","2023-10-15 04:41:16","31616","15.44060934","0.0004558","97.6064","69.2072","225.8417","134.2457","0","999","12783","0.0019552","0.00090155","0","4034343","0 SPACEBEE-104","1 48890U 21059M   23288.19532444  .00090155  00000-0  19552-2 0  9995","2 48890  97.6064  69.2072 0004558 225.8417 134.2457 15.44060934127833","2021-059M","48890","6812.276","93.261","437.246","431.036","0"
"GENERATED VIA SPACETRACK.ORG API","18 SPCS","48890","SPACEBEE-104","PAYLOAD","U","21059M","2023-10-15 09:21:13","651776","15.44099218","0.0004494","97.6063","69.4107","225.3747","134.7135","0","999","12786","0.0019231","0.00088771","0","4034787","0 SPACEBEE-104","1 48890U 21059M   23288.38974134  .00088771  00000-0  19231-2 0  9997","2 48890  97.6063  69.4107 0004494 225.3747 134.7135 15.44099218127861","2021-059M","48890","6812.163","93.258","437.090","430.967","0"
"GENERATED VIA SPACETRACK.ORG API","18 SPCS","48890","SPACEBEE-104","PAYLOAD","U","21059M","2023-10-15 20:14:26","862144","15.44161192","0.0004597","97.6065","69.8848","223.2863","136.8024","0","999","12793","0.001766","0.00081608","0","4035011","0 SPACEBEE-104","1 48890U 21059M   23288.84336646  .00081608  00000-0  17660-2 0  9994","2 48890  97.6065  69.8848 0004597 223.2863 136.8024 15.44161192127938","2021-059M","48890","6811.981","93.255","436.977","430.714","0"
"GENERATED VIA SPACETRACK.ORG API","18 SPCS","48890","SPACEBEE-104","PAYLOAD","U","21059M","2023-10-15 20:14:26","862144","15.44161192","0.0004597","97.6065","69.8848","223.2863","136.8024","0","999","12793","0.001766","0.00081608","0","4035078","0 SPACEBEE-104","1 48890U 21059M   23288.84336646  .00081608  00000-0  17660-2 0  9994","2 48890  97.6065  69.8848 0004597 223.2863 136.8024 15.44161192127938","2021-059M","48890","6811.981","93.255","436.977","430.714","0"
"GENERATED VIA SPACETRACK.ORG API","18 SPCS","48890","SPACEBEE-104","PAYLOAD","U","21059M","2023-10-16 08:40:56","789760","15.44253281","0.0004581","97.6066","70.4268","221.6606","138.4293","0","999","12801","0.0018726","0.00086868","0","4036830","0 SPACEBEE-104","1 48890U 21059M   23289.36176840  .00086868  00000-0  18726-2 0  9997","2 48890  97.6066  70.4268 0004581 221.6606 138.4293 15.44253281128010","2021-059M","48890","6811.710","93.249","436.695","430.455","0"
"GENERATED VIA SPACETRACK.ORG API","18 SPCS","48890","SPACEBEE-104","PAYLOAD","U","21059M","2023-10-16 08:40:56","789760","15.44253281","0.0004581","97.6066","70.4268","221.6606","138.4293","0","999","12801","0.0018726","0.00086868","0","4037139","0 SPACEBEE-104","1 48890U 21059M   23289.36176840  .00086868  00000-0  18726-2 0  9997","2 48890  97.6066  70.4268 0004581 221.6606 138.4293 15.44253281128010","2021-059M","48890","6811.710","93.249","436.695","430.455","0"
"GENERATED VIA SPACETRACK.ORG API","18 SPCS","48890","SPACEBEE-104","PAYLOAD","U","21059M","2023-10-19 03:32:42","161280","15.44691939","0.0004218","97.6065","73.3415","211.3792","148.7205","0","999","12844","0.0019777","0.0009319","0","4040681","0 SPACEBEE-104","1 48890U 21059M   23292.14771020  .00093190  00000-0  19777-2 0  9991","2 48890  97.6065  73.3415 0004218 211.3792 148.7205 15.44691939128444","2021-059M","48890","6810.420","93.222","435.158","429.413","0"
"GENERATED VIA SPACETRACK.ORG API","18 SPCS","48890","SPACEBEE-104","PAYLOAD","U","21059M","2023-10-19 08:12:32","702688","15.44741653","0.0004117","97.6077","73.5462","215.3715","144.726","0","999","12847","0.0019826","0.00093582","0","4041530","0 SPACEBEE-104","1 48890U 21059M   23292.34204517  .00093582  00000-0  19826-2 0  9995","2 48890  97.6077  73.5462 0004117 215.3715 144.7260 15.44741653128477","2021-059M","48890","6810.274","93.219","434.943","429.335","0"
"GENERATED VIA SPACETRACK.ORG API","18 SPCS","48890","SPACEBEE-104","PAYLOAD","U","21059M","2023-10-19 08:12:32","702688","15.44741653","0.0004117","97.6077","73.5462","215.3715","144.726","0","999","12847","0.0019826","0.00093582","0","4042363","0 SPACEBEE-104","1 48890U 21059M   23292.34204517  .00093582  00000-0  19826-2 0  9995","2 48890  97.6077  73.5462 0004117 215.3715 144.7260 15.44741653128477","2021-059M","48890","6810.274","93.219","434.943","429.335","0"
"GENERATED VIA SPACETRACK.ORG API","18 SPCS","48890","SPACEBEE-104","PAYLOAD","U","21059M","2023-10-19 22:12:02","335392","15.44847631","0.0004002","97.6075","74.1569","214.3187","145.7802","0","999","12856","0.0020531","0.00097307","0","4042947","0 SPACEBEE-104","1 48890U 21059M   23292.92502703  .00097307  00000-0  20531-2 0  9991","2 48890  97.6075  74.1569 0004002 214.3187 145.7802 15.44847631128561","2021-059M","48890","6809.963","93.213","434.553","429.102","0"
"GENERATED VIA SPACETRACK.ORG API","18 SPCS","48890","SPACEBEE-104","PAYLOAD","U","21059M","2023-10-20 09:04:56","246592","15.44926221","0.0004042","97.6074","74.6313","212.4167","147.6833","0","999","12863","0.0016473","0.00078072","0","4043866","0 SPACEBEE-104","1 48890U 21059M   23293.37842878  .00078072  00000-0  16473-2 0  9999","2 48890  97.6074  74.6313 0004042 212.4167 147.6833 15.44926221128639","2021-059M","48890","6809.732","93.208","434.349","428.844","0"
"GENERATED VIA SPACETRACK.ORG API","18 SPCS","48890","SPACEBEE-104","PAYLOAD","U","21059M","2023-10-20 09:04:56","246592","15.44926221","0.0004042","97.6074","74.6313","212.4167","147.6833","0","999","12863","0.0016473","0.00078072","0","4044291","0 SPACEBEE-104","1 48890U 21059M   23293.37842878  .00078072  00000-0  16473-2 0  9999","2 48890  97.6074  74.6313 0004042 212.4167 147.6833 15.44926221128639","2021-059M","48890","6809.732","93.208","434.349","428.844","0"
"GENERATED VIA SPACETRACK.ORG API","18 SPCS","48890","SPACEBEE-104","PAYLOAD","U","21059M","2023-10-20 21:31:04","163808","15.4501112","0.0003987","97.607","75.1741","211.181","148.9202","0","999","12871","0.001803","0.0008579","0","4044750","0 SPACEBEE-104","1 48890U 21059M   23293.89657597  .00085790  00000-0  18030-2 0  9994","2 48890  97.6070  75.1741 0003987 211.1810 148.9202 15.45011120128711","2021-059M","48890","6809.482","93.203","434.062","428.632","0"
"GENERATED VIA SPACETRACK.ORG API","18 SPCS","48890","SPACEBEE-104","PAYLOAD","U","21059M","2023-10-21 08:23:53","849184","15.45101472","0.0004011","97.6069","75.6483","209.4232","150.6791","0","999","12878","0.0020608","0.00098533","0","4045812","0 SPACEBEE-104","1 48890U 21059M   23294.34992881  .00098533  00000-0  20608-2 0  9996","2 48890  97.6069  75.6483 0004011 209.4232 150.6791 15.45101472128784","2021-059M","48890","6809.217","93.198","433.813","428.351","0"
